[{"OBJECT_NAME":"DAQI 1","OBJECT_ID":"2022-039A","EPOCH":"2026-03-09T22:54:20.613600","MEAN_MOTION":14.57656651,"ECCENTRICITY":0.00031421,"INCLINATION":98.1406,"RA_OF_ASC_NODE":9.9086,"ARG_OF_PERICENTER":179.0073,"MEAN_ANOMALY":181.1133,"EPHEMERIS_TYPE":0,"CLASSIFICATION_TYPE":"U","NORAD_CAT_ID":52257,"ELEMENT_SET_NO":999,"REV_AT_EPOCH":20748,"BSTAR":0.00015776959,"MEAN_MOTION_DOT":6.74e-6,"MEAN_MOTION_DDOT":0},{"OBJECT_NAME":"SL-12 DEB","OBJECT_ID":"1985-042G","EPOCH":"2026-03-09T22:34:09.719328","MEAN_MOTION":14.47782108,"ECCENTRICITY":0.00869846,"INCLINATION":66.591,"RA_OF_ASC_NODE":291.7356,"ARG_OF_PERICENTER":29.563,"MEAN_ANOMALY":73.838,"EPHEMERIS_TYPE":0,"CLASSIFICATION_TYPE":"U","NORAD_CAT_ID":18764,"ELEMENT_SET_NO":999,"REV_AT_EPOCH":98955,"BSTAR":0.00015060921,"MEAN_MOTION_DOT":4.86e-6,"MEAN_MOTION_DDOT":0}]
